SAR-LUPE 2              
1 31797U 07030A   26164.27892591  .00040074  00000+0  72643-3 0  9998
2 31797  98.1035 268.2291 0006362 146.9265 213.2383 15.49499068 56339
SAPPHIRE                
1 39088U 13009C   26164.25782239  .00000106  00000+0  52085-4 0  9998
2 39088  98.4259 343.8070 0009999 259.6984 100.3074 14.35239534696017
PRAETORIAN SDA_602      
1 65565U 25203A   26164.04885852  .00000057  00000+0  40005-4 0  9992
2 65565  81.3033  14.6026 0005556 195.6154 164.4833 13.84342351 38125
PRAETORIAN SDA_603      
1 65566U 25203B   26164.07423820  .00000184  00000+0  15499-3 0  9998
2 65566  81.3039  14.4931 0009093 198.8250 161.2572 13.83904626 38131
PRAETORIAN SDA_604      
1 65567U 25203C   26164.01906268  .00000065  00000+0  48266-4 0  9992
2 65567  81.3055  14.9498 0005045 203.7450 156.3474 13.83047121 38105
PRAETORIAN SDA_605      
1 65568U 25203D   26164.27485249  .00000051  00000+0  35250-4 0  9996
2 65568  81.3020  14.3802 0007885 193.7908 166.3034 13.83433878 38157
PRAETORIAN SDA_606      
1 65569U 25203E   26164.11267453  .00000070  00000+0  52930-4 0  9990
2 65569  81.3056  14.7502 0005503 192.2424 167.8599 13.83406990 38124
PRAETORIAN SDA_607      
1 65570U 25203F   26164.05100815  .00000242  00000+0  20607-3 0  9999
2 65570  81.3040  14.4765 0008506 199.1509 160.9329 13.84284153 38135
PRAETORIAN SDA_608      
1 65571U 25203G   26164.09931451  .00000057  00000+0  40398-4 0  9996
2 65571  81.3008  14.5923 0005558 202.6326 157.4586 13.83816435 38126
PRAETORIAN SDA_609      
1 65572U 25203H   26164.03311357 -.00001173  00000+0 -10629-2 0  9992
2 65572  81.3042  14.6312 0005160 203.0532 157.0394 13.84230318 38125
PRAETORIAN SDA_610      
1 65573U 25203J   26164.07917313  .00000051  00000+0  35070-4 0  9992
2 65573  81.3010  14.5691 0006221 200.1503 159.9409 13.83851574 38125
PRAETORIAN SDA_611      
1 65574U 25203K   26164.07834417  .00000176  00000+0  14989-3 0  9999
2 65574  81.3018  14.7329 0005044 205.6252 154.4655 13.83307883 38118
PRAETORIAN SDA_612      
1 65575U 25203L   26164.28980455  .00000121  00000+0  96217-4 0  9992
2 65575  81.3033  14.1327 0008861 197.5430 162.5423 13.85038088 38174
PRAETORIAN SDA_613      
1 65576U 25203M   26164.08347428  .00000054  00000+0  38875-4 0  9999
2 65576  81.3001  14.7212 0005324 195.6336 164.4656 13.82764727 38110
PRAETORIAN SDA_614      
1 65577U 25203N   26164.27824579  .00000036  00000+0  21521-4 0  9998
2 65577  81.3016  14.2199 0006787 194.6753 165.4208 13.84777807 38177
PRAETORIAN SDA_615      
1 65578U 25203P   26164.10962609  .00000177  00000+0  14713-3 0  9998
2 65578  81.3024  14.3376 0008704 196.5870 163.5004 13.84435963 38141
PRAETORIAN SDA_616      
1 65579U 25203Q   26164.07743458  .00000172  00000+0  14582-3 0  9993
2 65579  81.3067  14.8755 0005082 203.8116 156.2806 13.83267415 38116
PRAETORIAN SDA_617      
1 65580U 25203R   26164.02635022  .00000035  00000+0  21306-4 0  9998
2 65580  81.3038  14.7542 0007027 195.8363 164.2574 13.83149875 38114
PRAETORIAN SDA_618      
1 65581U 25203S   26164.07636329  .00000210  00000+0  17671-3 0  9999
2 65581  81.3026  14.2997 0009325 198.9732 161.1079 13.84668229 38147
PRAETORIAN SDA_619      
1 65582U 25203T   26164.03744248  .00000217  00000+0  18519-3 0  9995
2 65582  81.3046  14.6259 0007853 197.1311 162.9582 13.83805328 38750
PRAETORIAN SDA_620      
1 65583U 25203U   26164.28181171  .00000166  00000+0  13946-3 0  9995
2 65583  81.3034  14.4205 0007296 191.5277 168.5713 13.83617220 38151
PRAETORIAN SDA_621      
1 65584U 25203V   26164.11150672  .00000053  00000+0  37475-4 0  9999
2 65584  81.3023  14.4975 0007140 189.8291 170.2727 13.83800831 38133
PRAETORIAN SDA_601      
1 65585U 25203W   26164.08027314  .00000099  00000+0  79149-4 0  9996
2 65585  81.3049  14.8187 0004954 207.2323 152.8574 13.83166527 38113
